1 02375U 63014W   11326.34735269  .00000003  00000-0  10000-3 0  9990
2 02375 086.7957 090.0434 1470755 344.1940 011.7764 08.71999873469652
1 02375U 63014W   11326.80617078 +.00000003 +00000-0 +10000-3 0  9998
2 02375 086.7944 089.9866 1470302 343.7207 012.0881 08.71999983469693
1 02375U 63014W   11327.37971003  .00000003  00000-0  10000-3 0  9992
2 02375 086.7941 089.9169 1471182 343.0756 012.5991 08.72001862469749
1 02375U 63014W   11330.82093458  .00000003  00000-0  10000-3 0  9995
2 02375 086.7873 089.4961 1471617 339.2398 015.8407 08.72026621470043
1 02375U 63014W   11331.39431635  .00000002  00000-0  10000-3 0  9990
2 02375 086.7876 089.4261 1471509 338.6133 015.8962 08.72029006470090
1 02375U 63014W   11332.31195013  .00000002  00000-0  10000-3 0  9990
2 02375 086.7861 089.3137 1473145 337.6349 016.6645 08.72032608470179
1 02375U 63014W   11332.77075127 +.00000002 +00000-0 +10000-3 0  9993
2 02375 086.7873 089.2585 1472645 337.1537 016.9843 08.72032786470211
1 02375U 63014W   11333.80306686  .00000002  00000-0  10000-3 0  9995
2 02375 086.7871 089.1329 1473156 336.0394 017.8160 08.72036047470307
1 02375U 63014W   11333.80306686 +.00000002 +00000-0 +10000-3 0  9995
2 02375 086.7871 089.1329 1473156 336.0394 017.8160 08.72036047470307
1 02375U 63014W   11336.32654801  .00000002  00000-0  10000-3 0  9990
2 02375 086.7886 088.8276 1475571 333.1559 020.3773 08.72062065470526
1 02375U 63014W   11337.24402416  .00000002  00000-0  10000-3 0  9995
2 02375 086.7883 088.7159 1474154 332.1508 020.7899 08.72064581470608
1 02375U 63014W   11337.35871009  .00000002  00000-0  10000-3 0  9995
2 02375 086.7884 088.7019 1474673 332.0329 020.8643 08.72066829470616
1 02375U 63014W   11340.34089755  .00000002  00000-0  10000-3 0  9997
2 02375 086.7988 088.3463 1477861 328.7118 023.7246 08.72102312470877
1 02375U 63014W   11341.37302538  .00000002  00000-0  10000-3 0  9998
2 02375 086.7922 088.2158 1475710 327.6801 024.1497 08.72106081470963
1 02375U 63014W   11342.29058233  .00000002  00000-0  10000-3 0  9990
2 02375 086.7966 088.1079 1439643 327.9904 024.1571 08.72108704471041
1 02375U 63014W   11343.32281251  .00000002  00000-0  10000-3 0  9993
2 02375 086.8156 087.9973 1430312 327.1950 024.8122 08.72112525471135
1 02375U 63014W   11346.30484728  .00000001  00000-0  10000-3 0  9997
2 02375 086.8212 087.6341 1475112 322.3749 028.6343 08.72152163471391
1 02375U 63014W   11347.22223355  .00000001  00000-0  10000-3 0  9996
2 02375 086.8269 087.5263 1508503 320.4257 029.5339 08.72155492471471
1 02375U 63014W   11347.33692503  .00000001  00000-0  10000-3 0  9993
2 02375 086.8097 087.5007 1484460 320.9705 029.2966 08.72155425471484
1 02375U 63014W   11348.36908727  .00000001  00000-0  10000-3 0  9995
2 02375 086.7684 087.3470 1435779 321.2027 029.4120 08.72160298471575
1 02375U 63014W   11349.28658532  .00000001  00000-0  10000-3 0  9993
2 02375 086.7676 087.2354 1413962 320.8677 029.8439 08.72163378471650
1 02375U 63014W   11349.74531573  .00004472  00000-0  10000-3 0  9995
2 02375 086.7830 087.1880 1488824 318.3364 031.3306 08.72193854471696
1 02375U 63014W   11352.26846051  .00000001  00000-0  10000-3 0  9990
2 02375 086.8025 086.8938 1456991 316.3613 033.5003 08.72198633471911
1 02375U 63014W   11353.18579133  .00000001  00000-0  10000-3 0  9996
2 02375 086.8047 086.7835 1481098 314.7514 034.1709 08.72200201471991
1 02375U 63014W   11353.30047535  .00000001  00000-0  10000-3 0  9996
2 02375 086.7950 086.7620 1463064 315.0531 034.1180 08.72202757472005
1 02375U 63014W   11354.79134115  .00000001  00000-0  10000-3 0  9991
2 02375 086.7976 086.5818 1481695 313.0199 035.5121 08.72203122472139
1 02375U 63014W   11355.70882009  .00000001  00000-0  10000-3 0  9995
2 02375 086.7846 086.4596 1477543 312.1503 036.2792 08.72203088472215
1 02375U 63014W   11358.23185986  .00000001  00000-0  10000-3 0  9996
2 02375 086.7837 086.1507 1421248 310.5549 038.9166 08.72250827472438
1 02375U 63014W   11359.26366016  .00000001  00000-0  10000-3 0  9995
2 02375 086.8057 086.0427 1413630 309.5768 038.8642 08.72252239472527
1 02375U 63014W   11360.18107143  .00000001  00000-0  10000-3 0  9992
2 02375 086.7844 085.9111 1452114 307.7512 040.0649 08.72256287472603
1 02375U 63014W   11360.63976692  .00000001  00000-0  10000-3 0  9995
2 02375 086.7765 085.8472 1484596 306.6424 040.6372 08.72256880472645
1 02375U 63014W   11364.30945373  .00000000  00000-0  10000-3 0  9994
2 02375 086.7819 085.4018 1502585 302.4860 045.0111 08.72317072472960
1 02375U 63014W   11365.22646989  .00000000  00000-0  10000-3 0  9997
2 02375 086.7810 085.2892 1503891 301.5302 044.7651 08.72320671473045
1 02375U 63014W   12001.14381053  .00000000  00000-0  10000-3 0  9994
2 02375 086.7821 085.1771 1502808 300.4860 045.6340 08.72322291473120
1 02375U 63014W   12005.15723485  .00000000  00000-0  10000-3 0  9998
2 02375 086.7826 084.6830 1507866 296.0556 050.2014 08.72370227473476
1 02375U 63014W   12009.28484473 -.00000000  00000-0  10000-3 0  9998
2 02375 086.7839 084.1771 1514204 291.7373 053.7721 08.72427105473833
1 02375U 63014W   12009.62854655 -.00000000 +00000-0 +10000-3 0  9999
2 02375 086.7826 084.1353 1514201 291.3857 053.2341 08.72427714473867
1 02375U 63014W   12010.20183046 -.00000000  00000-0  10000-3 0  9994
2 02375 086.7760 084.0667 1517204 290.9126 053.6384 08.72431144473910
1 02375U 63014W   12010.54579227 -.00000000  00000-0  10000-3 0  9991
2 02375 086.7835 084.0241 1515010 290.4128 054.0990 08.72432019473944
1 02375U 63014W   12013.29754197 -.00000000  00000-0  10000-3 0  9997
2 02375 086.7883 083.6845 1515767 287.3803 057.1214 08.72463991474189
1 02375U 63014W   12014.21463801 -.00000000  00000-0  10000-3 0  9999
2 02375 086.7871 083.5722 1516749 286.4219 057.5944 08.72466677474268
1 02375U 63014W   12015.13184920 -.00000000  00000-0  10000-3 0  9993
2 02375 086.7872 083.4593 1516546 285.4436 058.4853 08.72469995474343
1 02375U 63014W   12015.59044330 -.00000000  00000-0  10000-3 0  9993
2 02375 086.7869 083.4023 1515060 284.9149 058.9476 08.72471135474381
1 02375U 63014W   12016.16369751 -.00000000  00000-0  10000-3 0  9994
2 02375 086.7878 083.3309 1515468 284.2574 059.5799 08.72474541474439
1 02375U 63014W   12019.60302655  .00003360  00000-0  10000-3 0  9997
2 02375 086.7864 082.8999 1525802 280.6308 062.7331 08.72532411474733
1 02375U 63014W   12020.17650240 -.00000000  00000-0  10000-3 0  9996
2 02375 086.7871 082.8341 1524865 280.0404 064.0216 08.72521093474787
1 02375U 63014W   12021.66663669 -.00000000 +00000-0 +10000-3 0  9990
2 02375 086.7891 082.6530 1524669 278.3670 064.7916 08.72525277474911
1 02375U 63014W   12025.56461715 -.00000000  00000-0  10000-3 0  9991
2 02375 086.7877 082.1701 1530111 274.2866 068.9228 08.72547654475254
1 02375U 63014W   12026.13771261 -.00000000 +00000-0 +10000-3 0  9995
2 02375 086.7878 082.0998 1530516 273.6860 069.1052 08.72548504475307
1 02375U 63014W   12027.51343649 -.00000000 +00000-0 +10000-3 0  9993
2 02375 086.7874 081.9307 1530807 272.2275 070.4693 08.72548714475425
1 02375U 63014W   12028.54523848 -.00000000  00000-0  10000-3 0  9998
2 02375 086.7868 081.8037 1530805 271.1147 071.5411 08.72548714475511
1 02375U 63014W   12029.57704024 -.00000000 +00000-0 +10000-3 0  9999
2 02375 086.7868 081.6771 1530775 269.9995 072.6174 08.72548807475607
1 02375U 63014W   12030.15026344 -.00000000  00000-0  10000-3 0  9997
2 02375 086.7882 081.6079 1532090 269.4385 073.2029 08.72551225475653
1 02375U 63014W   12031.18203945 -.00000000  00000-0  10000-3 0  9995
2 02375 086.7894 081.4814 1532445 268.2994 074.2617 08.72552307475744
1 02375U 63014W   12032.67242399 -.00000000  00000-0  10000-3 0  9996
2 02375 086.7873 081.2973 1533485 266.8023 075.6936 08.72551915475874
1 02375U 63014W   12032.67242399 -.00000000 +00000-0 +10000-3 0  9996
2 02375 086.7873 081.2973 1533485 266.8023 075.6936 08.72551915475874
1 02375U 63014W   12033.58958584 -.00000000 +00000-0 +10000-3 0  9997
2 02375 086.7850 081.1830 1533762 265.8310 076.6403 08.72551689475953
1 02375U 63014W   12034.62139706 -.00000000 +00000-0 +10000-3 0  9990
2 02375 086.7852 081.0567 1532696 264.7820 077.6742 08.72551500476040
1 02375U 63014W   12036.11179888 -.00000000  00000-0  10000-3 0  9991
2 02375 086.7845 080.8731 1534351 263.3304 079.1817 08.72553383476179
1 02375U 63014W   12036.57036430 -.00000000 +00000-0 +10000-3 0  9996
2 02375 086.7833 080.8159 1534425 262.8413 079.6144 08.72553287476213
1 02375U 63014W   12037.14359395 -.00000000 +00000-0 +10000-3 0  9998
2 02375 086.7841 080.7439 1535354 262.2234 080.2602 08.72554126476264
1 02375U 63014W   12038.17539582 -.00000000  00000-0  10000-3 0  9990
2 02375 086.7869 080.6181 1537513 260.9323 081.5912 08.72556109476351
1 02375U 63014W   12038.63395201 -.00000000 +00000-0 +10000-3 0  9999
2 02375 086.7846 080.5604 1537594 260.4708 081.9649 08.72555908476397
1 02375U 63014W   12039.55112251 -.00000000 +00000-0 +10000-3 0  9993
2 02375 086.7819 080.4458 1537679 259.5182 082.9302 08.72555621476470
1 02375U 63014W   12040.46829631 -.00000000  00000-0  10000-3 0  9992
2 02375 086.7827 080.3316 1539083 258.5949 083.8834 08.72555939476553
1 02375U 63014W   12041.15616019  .00000000  00000-0  10000-3 0  9992
2 02375 086.7831 080.2457 1539941 257.8677 084.6171 08.72557191476618
1 02375U 63014W   12042.07332900 +.00000000 +00000-0 +10000-3 0  9998
2 02375 086.7832 080.1322 1540169 256.9085 085.6145 08.72557700476692
1 02375U 63014W   12043.10513612  .00000000  00000-0  10000-3 0  9994
2 02375 086.7856 080.0057 1540791 255.7442 086.8056 08.72558250476782
1 02375U 63014W   12043.56372159 +.00000000 +00000-0 +10000-3 0  9993
2 02375 086.7831 079.9476 1540868 255.2769 087.2802 08.72558013476825
1 02375U 63014W   12044.13695833 +.00000000 +00000-0 +10000-3 0  9994
2 02375 086.7829 079.8770 1540992 254.6825 087.9207 08.72558358476875
1 02375U 63014W   12045.16877336  .00000000  00000-0  10000-3 0  9998
2 02375 086.7838 079.7500 1541153 253.5736 089.0772 08.72558717476963
